OBJECT_NAME,OBJECT_ID,EPOCH,MEAN_MOTION,ECCENTRICITY,INCLINATION,RA_OF_ASC_NODE,ARG_OF_PERICENTER,MEAN_ANOMALY,EPHEMERIS_TYPE,CLASSIFICATION_TYPE,NORAD_CAT_ID,ELEMENT_SET_NO,REV_AT_EPOCH,BSTAR,MEAN_MOTION_DOT,MEAN_MOTION_DDOT
STARLINK-31425,2024-049Y,2026-07-16T20:43:05.409120,15.27572706,.0000522,43.0015,133.8466,269.3674,90.7118,0,U,59253,999,13215,-.11331E-4,-.573E-5,0
STARLINK-31659,2024-050A,2026-07-16T18:03:17.856000,15.34398324,.0000685,53.1605,296.9104,94.0238,266.0843,0,U,59254,999,13152,.50223E-4,.1321E-4,0
STARLINK-31629,2024-050B,2026-07-16T17:21:11.234016,15.30213635,.0001142,53.1605,301.6858,97.2646,262.8485,0,U,59255,999,13030,.34831E-4,.673E-5,0
STARLINK-31652,2024-050C,2026-07-16T14:35:33.889632,15.31703185,.0001126,53.1599,301.6847,108.2523,251.8601,0,U,59256,999,13029,.44194E-4,.1007E-4,0
STARLINK-31637,2024-050E,2026-07-16T13:58:58.260864,15.34365507,.0001934,53.1621,301.5242,125.5194,234.5990,0,U,59258,999,13029,.18744E-3,.5955E-4,0
STARLINK-31506,2024-050F,2026-07-16T14:08:32.275680,15.30202094,.0000919,53.1581,302.2741,81.5587,278.5517,0,U,59259,999,13028,.17097E-3,.4708E-4,0
STARLINK-31639,2024-050H,2026-07-16T16:02:48.304032,15.31704719,.0000734,53.1585,301.3513,98.6381,261.4704,0,U,59261,999,13030,.93977E-4,.2553E-4,0
STARLINK-31598,2024-050K,2026-07-16T15:38:48.928416,15.34398538,.0001059,53.1598,301.2264,92.9785,267.1339,0,U,59263,999,13030,.12821E-3,.3958E-4,0
STARLINK-31645,2024-050L,2026-07-16T13:16:40.474272,15.34407231,.0001059,53.1606,302.0475,86.1296,273.9828,0,U,59264,999,13028,.29689E-3,.967E-4,0
STARLINK-31646,2024-050M,2026-07-16T17:21:43.725600,15.34388621,.000105,53.1592,300.9790,80.3195,279.7926,0,U,59265,999,13031,.14259E-3,.4443E-4,0
STARLINK-31648,2024-050N,2026-07-16T18:41:34.239264,15.30203286,.0000993,53.1602,301.3241,89.9378,270.1736,0,U,59266,999,13031,.67946E-4,.1654E-4,0
STARLINK-31579,2024-050P,2026-07-16T12:45:07.361280,15.30192277,.0000674,53.1610,302.6216,108.0829,252.0246,0,U,59267,999,13027,.31895E-3,.9097E-4,0
STARLINK-31627,2024-050Q,2026-07-16T15:50:56.870880,15.34396901,.000126,53.1594,301.2936,91.4075,268.7072,0,U,59268,999,13030,.57468E-3,.19088E-3,0
STARLINK-31609,2024-050R,2026-07-16T15:56:59.501184,15.34397420,.0001183,53.1609,301.3206,85.3438,274.7700,0,U,59269,999,13030,.95346E-4,.2846E-4,0
STARLINK-31616,2024-050S,2026-07-16T14:02:00.786048,15.34387758,.0001342,53.1587,301.5337,90.5128,269.6028,0,U,59270,999,13029,.98843E-4,.2963E-4,0
STARLINK-31630,2024-050T,2026-07-16T13:09:42.001056,15.34406017,.0000919,53.1600,287.8093,63.4214,296.6883,0,U,59271,999,13048,.83037E-4,.2431E-4,0
STARLINK-31623,2024-050U,2026-07-16T15:29:43.345248,15.34399010,.00008,53.1609,301.2092,90.3467,269.7627,0,U,59272,999,13030,.9602E-4,.2869E-4,0
STARLINK-31595,2024-050V,2026-07-16T14:03:58.716864,15.30199213,.0000863,53.1598,302.2663,83.0967,277.0132,0,U,59273,999,13028,.47379E-4,.1044E-4,0
YUNHAI-2 02A,2024-052A,2026-07-16T20:19:03.881280,14.27969564,.0011705,50.0097,317.0185,249.0006,110.9657,0,U,59280,999,10246,.37381E-4,-.68E-6,0
YUNHAI-2 02B,2024-052B,2026-07-16T19:42:13.737312,14.27983234,.0004906,50.0096,256.9141,290.7851,69.2538,0,U,59281,999,12084,.32166E-4,-.81E-6,0
YUNHAI-2 02C,2024-052C,2026-07-16T20:49:57.237312,14.27972756,.0006276,50.0100,16.6507,265.9039,94.1159,0,U,59282,999,11904,.29573E-4,-.87E-6,0
YUNHAI-2 02D,2024-052D,2026-07-16T20:13:28.263936,14.28005489,.000487,50.0064,136.6756,326.8044,33.2564,0,U,59283,999,12263,.29833E-4,-.87E-6,0
YUNHAI-2 02E,2024-052E,2026-07-16T19:11:01.674816,14.27973548,.0011669,50.0086,197.3054,163.5682,196.5613,0,U,59284,999,11116,.29809E-4,-.87E-6,0
YUNHAI-2 02F,2024-052F,2026-07-16T19:46:04.376064,14.27999257,.0005165,50.0112,77.3607,286.5628,73.4720,0,U,59285,999,12339,.36018E-4,-.71E-6,0
MOLA,2024-053B,2026-07-16T09:50:29.387904,15.61833389,.0003542,49.9853,141.8269,84.7529,275.3846,0,U,59289,999,12606,.34274E-3,.2996E-3,0
AEROCUBE 16A,2024-053C,2026-07-16T20:50:46.722048,15.44653916,.0003057,49.9875,173.6890,87.1237,273.0076,0,U,59290,999,12569,.21296E-3,.9699E-4,0
AEROCUBE 16B,2024-053D,2026-07-16T13:14:32.337024,15.44613814,.0003037,49.9895,175.5327,81.7625,278.3683,0,U,59291,999,12572,.21179E-3,.963E-4,0
STARLINK-31463,2024-056A,2026-07-16T11:01:13.590912,15.27576953,.0001481,43.0038,219.5446,275.3989,84.6694,0,U,59296,999,13089,-.1422E-5,-.301E-5,0
STARLINK-31487,2024-056B,2026-07-16T10:44:05.421408,15.27577571,.0001096,43.0010,223.7692,277.4349,82.6378,0,U,59297,999,13096,.23309E-4,.379E-5,0
STARLINK-31386,2024-056C,2026-07-16T13:26:31.914240,15.27568981,.0001356,43.0006,222.8962,270.9355,89.1341,0,U,59298,999,13086,.11404E-3,.2876E-4,0
