STARLINK-31425          
1 59253U 24049Y   26197.86325705 -.00000573  00000+0 -11331-4 0  9993
2 59253  43.0015 133.8466 0000522 269.3674  90.7118 15.27572706132156
STARLINK-31659          
1 59254U 24050A   26197.75229000  .00001321  00000+0  50223-4 0  9998
2 59254  53.1605 296.9104 0000685  94.0238 266.0843 15.34398324131526
STARLINK-31629          
1 59255U 24050B   26197.72304669  .00000673  00000+0  34831-4 0  9997
2 59255  53.1605 301.6858 0001142  97.2646 262.8485 15.30213635130302
STARLINK-31652          
1 59256U 24050C   26197.60803113  .00001007  00000+0  44194-4 0  9998
2 59256  53.1599 301.6847 0001126 108.2523 251.8601 15.31703185130293
STARLINK-31637          
1 59258U 24050E   26197.58261876  .00005955  00000+0  18744-3 0  9998
2 59258  53.1621 301.5242 0001934 125.5194 234.5990 15.34365507130296
STARLINK-31506          
1 59259U 24050F   26197.58926245  .00004708  00000+0  17097-3 0  9992
2 59259  53.1581 302.2741 0000919  81.5587 278.5517 15.30202094130282
STARLINK-31639          
1 59261U 24050H   26197.66861463  .00002553  00000+0  93977-4 0  9992
2 59261  53.1585 301.3513 0000734  98.6381 261.4704 15.31704719130306
STARLINK-31598          
1 59263U 24050K   26197.65195519  .00003958  00000+0  12821-3 0  9993
2 59263  53.1598 301.2264 0001059  92.9785 267.1339 15.34398538130308
STARLINK-31645          
1 59264U 24050L   26197.55324623  .00009670  00000+0  29689-3 0  9990
2 59264  53.1606 302.0475 0001059  86.1296 273.9828 15.34407231130280
STARLINK-31646          
1 59265U 24050M   26197.72342275  .00004443  00000+0  14259-3 0  9993
2 59265  53.1592 300.9790 0001050  80.3195 279.7926 15.34388621130315
STARLINK-31648          
1 59266U 24050N   26197.77886851  .00001654  00000+0  67946-4 0  9995
2 59266  53.1602 301.3241 0000993  89.9378 270.1736 15.30203286130310
STARLINK-31579          
1 59267U 24050P   26197.53133520  .00009097  00000+0  31895-3 0  9990
2 59267  53.1610 302.6216 0000674 108.0829 252.0246 15.30192277130273
STARLINK-31627          
1 59268U 24050Q   26197.66038045  .00019088  00000+0  57468-3 0  9996
2 59268  53.1594 301.2936 0001260  91.4075 268.7072 15.34396901130308
STARLINK-31609          
1 59269U 24050R   26197.66457756  .00002846  00000+0  95346-4 0  9993
2 59269  53.1609 301.3206 0001183  85.3438 274.7700 15.34397420130308
STARLINK-31616          
1 59270U 24050S   26197.58473132  .00002963  00000+0  98843-4 0  9997
2 59270  53.1587 301.5337 0001342  90.5128 269.6028 15.34387758130290
STARLINK-31630          
1 59271U 24050T   26197.54840279  .00002431  00000+0  83037-4 0  9993
2 59271  53.1600 287.8093 0000919  63.4214 296.6883 15.34406017130486
STARLINK-31623          
1 59272U 24050U   26197.64564057  .00002869  00000+0  96020-4 0  9993
2 59272  53.1609 301.2092 0000800  90.3467 269.7627 15.34399010130306
STARLINK-31595          
1 59273U 24050V   26197.58609626  .00001044  00000+0  47379-4 0  9996
2 59273  53.1598 302.2663 0000863  83.0967 277.0132 15.30199213130281
YUNHAI-2 02A            
1 59280U 24052A   26197.84657270 -.00000068  00000+0  37381-4 0  9991
2 59280  50.0097 317.0185 0011705 249.0006 110.9657 14.27969564102462
YUNHAI-2 02B            
1 59281U 24052B   26197.82099233 -.00000081  00000+0  32166-4 0  9990
2 59281  50.0096 256.9141 0004906 290.7851  69.2538 14.27983234120847
YUNHAI-2 02C            
1 59282U 24052C   26197.86802358 -.00000087  00000+0  29573-4 0  9999
2 59282  50.0100  16.6507 0006276 265.9039  94.1159 14.27972756119048
YUNHAI-2 02D            
1 59283U 24052D   26197.84268824 -.00000087  00000+0  29833-4 0  9991
2 59283  50.0064 136.6756 0004870 326.8044  33.2564 14.28005489122632
YUNHAI-2 02E            
1 59284U 24052E   26197.79932494 -.00000087  00000+0  29809-4 0  9990
2 59284  50.0086 197.3054 0011669 163.5682 196.5613 14.27973548111163
YUNHAI-2 02F            
1 59285U 24052F   26197.82366176 -.00000071  00000+0  36018-4 0  9996
2 59285  50.0112  77.3607 0005165 286.5628  73.4720 14.27999257123390
MOLA                    
1 59289U 24053B   26197.41006236  .00029960  00000+0  34274-3 0  9992
2 59289  49.9853 141.8269 0003542  84.7529 275.3846 15.61833389126060
AEROCUBE 16A            
1 59290U 24053C   26197.86859632  .00009699  00000+0  21296-3 0  9996
2 59290  49.9875 173.6890 0003057  87.1237 273.0076 15.44653916125698
AEROCUBE 16B            
1 59291U 24053D   26197.55176316  .00009630  00000+0  21179-3 0  9999
2 59291  49.9895 175.5327 0003037  81.7625 278.3683 15.44613814125725
STARLINK-31463          
1 59296U 24056A   26197.45918508 -.00000301  00000+0 -14220-5 0  9992
2 59296  43.0038 219.5446 0001481 275.3989  84.6694 15.27576953130897
STARLINK-31487          
1 59297U 24056B   26197.44728497  .00000379  00000+0  23309-4 0  9998
2 59297  43.0010 223.7692 0001096 277.4349  82.6378 15.27577571130965
STARLINK-31386          
1 59298U 24056C   26197.56009160  .00002876  00000+0  11404-3 0  9997
2 59298  43.0006 222.8962 0001356 270.9355  89.1341 15.27568981130861
